COSMOS 2576             
1 59773U 24092A   26068.82603826  .00015211  00000+0  56283-3 0  9991
2 59773  97.4253 186.0053 0005946 159.7731 200.3745 15.27760963101271
STARLINK-35675          
1 67188U 25303AB  26068.05938489  .00026824  00000+0  98100-3 0  9993
2 67188  42.9996 314.7172 0001603 272.1324  87.9344 15.27571478 12631
